OBJECT_NAME,OBJECT_ID,EPOCH,MEAN_MOTION,ECCENTRICITY,INCLINATION,RA_OF_ASC_NODE,ARG_OF_PERICENTER,MEAN_ANOMALY,EPHEMERIS_TYPE,CLASSIFICATION_TYPE,NORAD_CAT_ID,ELEMENT_SET_NO,REV_AT_EPOCH,BSTAR,MEAN_MOTION_DOT,MEAN_MOTION_DDOT
STARLINK-36933,2026-114Q,2026-06-08T06:00:04.000320,15.80827074,.0001081,53.1589,246.9293,70.3963,153.2095,0,U,69196,999,337,.60725481E-3,.120583E-2,0
STARLINK-37419,2026-114R,2026-06-08T06:00:04.000320,15.80845231,.00012433,53.1587,246.9115,104.6464,127.5057,0,U,69197,999,337,.35684974E-3,.70216E-3,0
STARLINK-37321,2026-114S,2026-06-08T06:00:04.000320,15.80824155,.000117,53.1591,246.9031,100.2182,136.2102,0,U,69198,999,337,.5973202E-3,.118555E-2,0
STARLINK-37406,2026-114T,2026-06-08T06:00:04.000320,15.80936993,.00009141,53.1587,246.8943,104.2766,136.3464,0,U,69199,999,337,-.14953744E-3,-.30196E-3,0
STARLINK-37761,2026-114U,2026-06-08T06:00:04.000320,15.80822931,.00011138,53.1586,246.8849,98.4221,146.5503,0,U,69200,999,337,.60358544E-3,.119817E-2,0
STARLINK-37754,2026-114V,2026-06-08T06:00:04.000320,15.80847616,.00011098,53.1585,246.8738,80.0928,170.2449,0,U,69201,999,337,.37590062E-3,.74043E-3,0
STARLINK-37649,2026-114W,2026-06-08T06:00:04.000320,15.80859044,.0001031,53.1586,246.8679,100.8358,152.6693,0,U,69202,999,337,.22105827E-3,.43121E-3,0
STARLINK-37604,2026-114X,2026-06-08T06:00:04.000320,15.80844388,.0000927,53.1585,246.8589,97.8884,159.8926,0,U,69203,999,337,.35642457E-3,.70127E-3,0
STARLINK-37669,2026-114Y,2026-06-08T06:00:04.000320,15.80840808,.00011468,53.1585,246.8499,96.3290,165.7270,0,U,69204,999,337,.39458052E-3,.77766E-3,0
STARLINK-37691,2026-114Z,2026-06-08T06:00:04.000320,15.78053794,.00007167,53.1590,246.8315,98.9843,171.6020,0,U,69205,999,337,-.10380399E-3,-.18649E-3,0
STARLINK-37671,2026-114AA,2026-06-08T06:00:04.000320,15.80841712,.00009185,53.1584,246.8321,92.8103,177.7888,0,U,69206,999,337,.38733962E-3,.76316E-3,0
STARLINK-37647,2026-114AB,2026-06-08T06:00:04.000320,15.80852086,.00010894,53.1586,246.8408,110.1750,156.1485,0,U,69207,999,337,.29622475E-3,.58104E-3,0
STARLINK-37562,2026-114AC,2026-06-08T06:00:04.000320,15.80845266,.00010398,53.1584,246.8140,94.0604,185.0806,0,U,69208,999,337,.34956119E-3,.68755E-3,0
STARLINK-37682,2026-114AD,2026-06-08T06:00:04.000320,15.80815603,.00010641,53.1584,246.8050,102.5027,180.9159,0,U,69209,999,337,.71110923E-3,.141598E-2,0
STARLINK-37402,2026-114AE,2026-06-08T06:00:04.000320,15.80898599,.00007984,53.1583,246.7965,78.7735,208.8959,0,U,69210,999,337,-.73145873E-4,-.15126E-3,0
STARLINK-37613,2026-115A,2026-06-08T06:00:04.000320,15.72151624,.00012984,97.2838,176.2051,88.3490,267.7103,0,U,69211,999,325,-.22137453E-1,-.2536224E-1,0
STARLINK-37713,2026-115B,2026-06-08T05:52:34.627872,15.80888384,.00008313,97.2829,176.2139,119.0034,241.1318,0,U,69212,999,327,.10368127E-2,.203838E-2,0
STARLINK-37716,2026-115C,2026-06-08T02:51:21.467808,15.80907871,.00013132,97.2838,176.0788,101.1022,259.0394,0,U,69213,999,325,.98017621E-3,.192617E-2,0
STARLINK-37620,2026-115D,2026-06-08T06:00:04.000320,15.67935627,.00011059,97.2840,176.1949,76.7308,259.6844,0,U,69214,999,325,-.26730664E-1,-.256309E-1,0
STARLINK-37700,2026-115E,2026-06-08T06:00:04.000320,15.57412844,.00018542,97.2845,176.1486,81.4592,134.9383,0,U,69215,999,325,-.38654786E-1,-.2466363E-1,0
STARLINK-37766,2026-115F,2026-06-08T05:49:19.934976,15.80869341,.00008389,97.2831,176.2167,74.8415,285.2946,0,U,69216,999,327,.6196584E-3,.120496E-2,0
STARLINK-37763,2026-115G,2026-06-08T05:48:25.204896,15.80924828,.00009753,97.2831,176.2176,107.6094,252.5281,0,U,69217,999,327,.1273682E-2,.252266E-2,0
STARLINK-37724,2026-115H,2026-06-08T05:47:13.151616,15.80901979,.00006898,97.2835,176.2191,56.9756,303.1578,0,U,69218,999,327,.11502353E-2,.226899E-2,0
STARLINK-37758,2026-115J,2026-06-08T05:42:35.608032,15.80938130,.00008025,97.2832,176.2239,121.1310,239.0037,0,U,69219,999,327,.14497961E-2,.288556E-2,0
STARLINK-37201,2026-115K,2026-06-08T02:42:04.088448,15.80905262,.00011394,97.2840,176.0877,122.3282,237.8097,0,U,69220,999,325,.98388853E-3,.19334E-2,0
STARLINK-37728,2026-115L,2026-06-08T05:40:53.210208,15.80872326,.0000841,97.2839,176.2257,48.4525,311.6815,0,U,69221,999,327,.74934902E-3,.146197E-2,0
STARLINK-37760,2026-115M,2026-06-08T05:44:50.187264,15.80873114,.00009264,97.2837,176.2216,75.5054,284.6317,0,U,69222,999,327,.85752208E-3,.167745E-2,0
STARLINK-37759,2026-115N,2026-06-08T01:06:23.733792,15.80877746,.00021365,97.2837,176.0251,4.9324,355.1965,0,U,69223,999,324,.49142924E-3,.95299E-3,0
STARLINK-37725,2026-115P,2026-06-07T16:00:18.152928,15.80912921,.00016516,97.2840,175.6222,72.0447,288.1001,0,U,69224,999,318,.13327113E-2,.264185E-2,0
STARLINK-37770,2026-115Q,2026-06-08T01:08:05.069760,15.80868910,.00015339,97.2841,176.0233,27.1889,332.9460,0,U,69225,999,324,.48888524E-3,.94756E-3,0
