STARLINK-36933          
1 69196U 26114Q   26159.25004630  .00120583  00000+0  60725-3 0  9999
2 69196  53.1589 246.9293 0001081  70.3963 153.2095 15.80827074  3377
STARLINK-37419          
1 69197U 26114R   26159.25004630  .00070216  00000+0  35685-3 0  9994
2 69197  53.1587 246.9115 0001243 104.6464 127.5057 15.80845231  3373
STARLINK-37321          
1 69198U 26114S   26159.25004630  .00118555  00000+0  59732-3 0  9993
2 69198  53.1591 246.9031 0001170 100.2182 136.2102 15.80824155  3374
STARLINK-37406          
1 69199U 26114T   26159.25004630 -.00030196  00000+0 -14954-3 0  9997
2 69199  53.1587 246.8943 0000914 104.2766 136.3464 15.80936993  3374
STARLINK-37761          
1 69200U 26114U   26159.25004630  .00119817  00000+0  60359-3 0  9996
2 69200  53.1586 246.8849 0001113  98.4221 146.5503 15.80822931  3376
STARLINK-37754          
1 69201U 26114V   26159.25004630  .00074043  00000+0  37590-3 0  9999
2 69201  53.1585 246.8738 0001109  80.0928 170.2449 15.80847616  3379
STARLINK-37649          
1 69202U 26114W   26159.25004630  .00043121  00000+0  22106-3 0  9990
2 69202  53.1586 246.8679 0001031 100.8358 152.6693 15.80859044  3370
STARLINK-37604          
1 69203U 26114X   26159.25004630  .00070127  00000+0  35642-3 0  9996
2 69203  53.1585 246.8589 0000927  97.8884 159.8926 15.80844388  3375
STARLINK-37669          
1 69204U 26114Y   26159.25004630  .00077766  00000+0  39458-3 0  9992
2 69204  53.1585 246.8499 0001146  96.3290 165.7270 15.80840808  3376
STARLINK-37691          
1 69205U 26114Z   26159.25004630 -.00018649  00000+0 -10380-3 0  9993
2 69205  53.1590 246.8315 0000716  98.9843 171.6020 15.78053794  3370
STARLINK-37671          
1 69206U 26114AA  26159.25004630  .00076316  00000+0  38734-3 0  9990
2 69206  53.1584 246.8321 0000918  92.8103 177.7888 15.80841712  3374
STARLINK-37647          
1 69207U 26114AB  26159.25004630  .00058104  00000+0  29622-3 0  9992
2 69207  53.1586 246.8408 0001089 110.1750 156.1485 15.80852086  3375
STARLINK-37562          
1 69208U 26114AC  26159.25004630  .00068755  00000+0  34956-3 0  9992
2 69208  53.1584 246.8140 0001039  94.0604 185.0806 15.80845266  3370
STARLINK-37682          
1 69209U 26114AD  26159.25004630  .00141598  00000+0  71111-3 0  9994
2 69209  53.1584 246.8050 0001064 102.5027 180.9159 15.80815603  3370
STARLINK-37402          
1 69210U 26114AE  26159.25004630 -.00015126  00000+0 -73146-4 0  9996
2 69210  53.1583 246.7965 0000798  78.7735 208.8959 15.80898599  3371
STARLINK-37613          
1 69211U 26115A   26159.25004630 -.02536224  00000+0 -22137-1 0  9998
2 69211  97.2838 176.2051 0001298  88.3490 267.7103 15.72151624  3252
STARLINK-37713          
1 69212U 26115B   26159.24484523  .00203838  00000+0  10368-2 0  9993
2 69212  97.2829 176.2139 0000831 119.0034 241.1318 15.80888384  3273
STARLINK-37716          
1 69213U 26115C   26159.11899847  .00192617  00000+0  98018-3 0  9990
2 69213  97.2838 176.0788 0001313 101.1022 259.0394 15.80907871  3250
STARLINK-37620          
1 69214U 26115D   26159.25004630 -.02563090  00000+0 -26731-1 0  9996
2 69214  97.2840 176.1949 0001105  76.7308 259.6844 15.67935627  3258
STARLINK-37700          
1 69215U 26115E   26159.25004630 -.02466363  00000+0 -38655-1 0  9990
2 69215  97.2845 176.1486 0001854  81.4592 134.9383 15.57412844  3252
STARLINK-37766          
1 69216U 26115F   26159.24259184  .00120496  00000+0  61966-3 0  9999
2 69216  97.2831 176.2167 0000838  74.8415 285.2946 15.80869341  3277
STARLINK-37763          
1 69217U 26115G   26159.24195839  .00252266  00000+0  12737-2 0  9998
2 69217  97.2831 176.2176 0000975 107.6094 252.5281 15.80924828  3279
STARLINK-37724          
1 69218U 26115H   26159.24112444  .00226899  00000+0  11502-2 0  9992
2 69218  97.2835 176.2191 0000689  56.9756 303.1578 15.80901979  3278
STARLINK-37758          
1 69219U 26115J   26159.23791213  .00288556  00000+0  14498-2 0  9994
2 69219  97.2832 176.2239 0000802 121.1310 239.0037 15.80938130  3273
STARLINK-37201          
1 69220U 26115K   26159.11254732  .00193340  00000+0  98389-3 0  9991
2 69220  97.2840 176.0877 0001139 122.3282 237.8097 15.80905262  3255
STARLINK-37728          
1 69221U 26115L   26159.23672697  .00146197  00000+0  74935-3 0  9998
2 69221  97.2839 176.2257 0000841  48.4525 311.6815 15.80872326  3270
STARLINK-37760          
1 69222U 26115M   26159.23946976  .00167745  00000+0  85752-3 0  9994
2 69222  97.2837 176.2216 0000926  75.5054 284.6317 15.80873114  3278
STARLINK-37759          
1 69223U 26115N   26159.04610803  .00095299  00000+0  49143-3 0  9999
2 69223  97.2837 176.0251 0002136   4.9324 355.1965 15.80877746  3242
STARLINK-37725          
1 69224U 26115P   26158.66687677  .00264185  00000+0  13327-2 0  9996
2 69224  97.2840 175.6222 0001651  72.0447 288.1001 15.80912921  3187
STARLINK-37770          
1 69225U 26115Q   26159.04728090  .00094756  00000+0  48889-3 0  9992
2 69225  97.2841 176.0233 0001533  27.1889 332.9460 15.80868910  3248
